238P/Read,e,1.2645,51.6431,324.7052,3.163334,0.1751808,0.25231622,228.7776,05/19.0/2020,2000,g 14.5,4.0
# From MPC112394
239P/LINEAR,e,11.3031,255.9129,220.4325,4.471317,0.1042440,0.63070254,51.5901,05/19.0/2020,2000,g 17.5,2.0
# From MPC109593
240P/NEAT,e,23.5048,74.9237,352.0126,3.868574,0.1295322,0.44868429,95.1305,05/19.0/2020,2000,g 11.0,4.0
# From MPC 75729
241P/LINEAR,e,21.0956,305.4813,111.2214,4.934912,0.0899052,0.61076720,321.1291,05/19.0/2020,2000,g 13.5,4.0
# From MPC 81861
242P/Spahr,e,32.4806,180.4866,246.2537,5.477174,0.0768899,0.27787942,229.8753,05/19.0/2020,2000,g  8.0,4.0
# From MPC111774
243P/NEAT,e,7.6414,87.6563,283.5254,3.831634,0.1314099,0.35971428,83.0448,05/19.0/2020,2000,g 12.5,4.0
# From MPC 88331
244P/Scotti,e,2.2591,353.9905,92.8627,4.895476,0.0909938,0.19827370,277.0967,05/19.0/2020,2000,g  9.0,4.0
# From MPC111774
245P/WISE,e,21.1969,316.6535,316.8042,4.042184,0.1212774,0.45767416,100.6807,05/19.0/2020,2000,g 14.0,4.0
# From MPEC 2020-HN5
246P/NEAT,e,15.9872,78.7484,176.2538,4.015940,0.1224682,0.28679276,325.7544,05/19.0/2020,2000,g 10.5,4.0
# From MPC112394
247P/LINEAR,e,13.6569,54.0123,47.4850,3.970486,0.1245772,0.62458767,66.5272,05/19.0/2020,2000,g 16.5,2.0
# From MPC 75730
248P/Gibbs,e,6.3463,207.7461,209.9233,5.990529,0.0672212,0.63781994,229.0479,05/19.0/2020,2000,g 14.0,4.0
# From MPEC 2020-HN5
249P/LINEAR,e,8.3971,239.1775,65.6080,2.761779,0.2147438,0.82013623,351.0884,05/19.0/2020,2000,g 15.5,4.0
# From MPC110497
250P/Larson,e,13.2488,73.6699,45.8315,3.750890,0.1356758,0.40477901,113.4836,05/19.0/2020,2000,g 14.5,4.0
# From MPC104795
251P/LINEAR,e,23.4076,219.4030,31.2542,3.509614,0.1499046,0.50558369,155.5131,05/19.0/2020,2000,g 16.5,2.0
# From MPC102956
252P/LINEAR,e,10.4113,190.9545,343.3200,3.049239,0.1851045,0.67204453,282.6379,05/19.0/2020,2000,g 17.5,4.0
# From MPC112394
253P/PANSTARRS,e,4.9422,146.8750,230.6532,3.468160,0.1526003,0.41332860,113.2680,05/19.0/2020,2000,g 14.5,4.0
# From MPC 81473
254P/McNaught,e,32.5696,129.1721,219.4534,4.617168,0.0993438,0.32056991,346.7371,05/19.0/2020,2000,g 11.0,4.0
# From NK 2214
255P/Levy,e,15.6320,277.8753,183.9864,2.918713,0.1976591,0.73069466,197.1262,05/19.0/2020,2000,g  9.0,4.0
# From MPC 84027
256P/LINEAR,e,27.6372,81.3498,124.3139,4.635956,0.0987405,0.41849023,258.5747,05/19.0/2020,2000,g 14.0,2.0
# From MPC114608
257P/Catalina,e,20.2211,207.7534,117.6431,3.764599,0.1349354,0.43091224,344.5148,05/19.0/2020,2000,g 11.5,4.0
# From MPC 79655
258P/PANSTARRS,e,6.7458,126.2475,26.1196,4.402231,0.1067075,0.20914289,356.6254,05/19.0/2020,2000,g 13.0,4.0
# From MPC106349
259P/Garradd,e,15.8878,51.4652,257.5588,2.731143,0.2183673,0.33839625,222.3551,05/19.0/2020,2000,g 15.5,4.0
# From MPEC 2020-HN5
260P/McNaught,e,15.0523,349.3490,18.3983,3.622074,0.1429776,0.60888042,36.0346,05/19.0/2020,2000,g 13.5,4.0
# From MPEC 2019-TG9
261P/Larson,e,6.0762,291.1620,67.1251,3.489280,0.1512169,0.42298155,50.7001,05/19.0/2020,2000,g 14.0,4.0
# From MPC 82322
262P/McNaught-Russell,e,29.1607,217.9106,170.9987,6.877077,0.0546510,0.81498178,149.0456,05/19.0/2020,2000,g 13.5,4.0
# From MPC 89018
263P/Gibbs,e,11.5504,105.8171,34.4308,3.055291,0.1845548,0.58950941,177.4442,05/19.0/2020,2000,g  9.0,4.0
# From MPC114608
264P/Larsen,e,25.1380,220.8758,346.6809,3.898072,0.1280647,0.37445447,36.8731,05/19.0/2020,2000,g 13.0,4.0
# From MPC 79870
265P/LINEAR,e,14.3599,342.9566,33.4105,4.254450,0.1123153,0.64780096,330.1227,05/19.0/2020,2000,g 14.5,4.0
# From MPEC 2019-TG9
266P/Christensen,e,3.4258,5.0025,97.8541,3.535475,0.1482629,0.33948558,4.3690,05/19.0/2020,2000,g 12.5,4.0
# From MPC114608
267P/LONEOS,e,6.1375,228.6694,114.0847,3.212198,0.1711987,0.61396015,114.1069,05/19.0/2020,2000,g 19.5,4.0
# From MPC 92277
268P/Bernardi,e,16.1361,127.5830,0.0940,4.551705,0.1014946,0.47094939,187.7929,05/19.0/2020,2000,g 14.0,4.0
# From MPC104795
269P/Jedicke,e,7.0699,241.7023,225.9930,7.081704,0.0522995,0.43053682,107.5569,05/19.0/2020,2000,g 10.0,4.0
# From MPC 88332
270P/Gehrels,e,2.9171,222.9608,209.9322,6.669965,0.0572162,0.46682383,145.2027,05/19.0/2020,2000,g  8.0,4.0
# From MPC 92277
271P/van Houten-Lemmon,e,6.8651,9.2954,36.4864,7.049574,0.0526574,0.39318064,131.9217,05/19.0/2020,2000,g 11.0,4.0
# From MPC 81862
272P/NEAT,e,18.0762,109.4644,28.0038,4.453761,0.1048609,0.45415259,277.2145,05/19.0/2020,2000,g 16.0,2.0
# From MPC 82723
273P/Pons-Gambart,e,136.7501,320.4004,20.2950,31.69649,0.0055232,0.97403891,0.0000,12/16.9314/2012,2000,g 11.5,4.0
# From MPC 88332
274P/Tombaugh-Tenagra,e,15.8177,81.3357,38.5252,4.370463,0.1078730,0.43870100,285.5900,05/19.0/2020,2000,g 13.0,4.0
# From MPC 81862
275P/Hermann,e,21.2856,348.7568,174.1105,5.770992,0.0710932,0.71261835,192.2022,05/19.0/2020,2000,g 17.0,4.0
# From MPC114609
276P/Vorobjov,e,14.8218,211.4582,199.9850,5.310950,0.0805278,0.26736558,225.1618,05/19.0/2020,2000,g 11.5,4.0
# From MPC105243
277P/LINEAR,e,16.7791,276.3445,152.3178,3.851415,0.1303988,0.50547822,330.6329,05/19.0/2020,2000,g 14.0,4.0
# From MPEC 2020-HN5
278P/McNaught,e,6.6852,15.4496,238.0792,3.693010,0.1388779,0.43486266,343.8831,05/19.0/2020,2000,g 14.0,4.0
# From MPC100285
279P/La Sagra,e,5.0512,346.2253,5.7540,3.575860,0.1457583,0.39795682,204.6315,05/19.0/2020,2000,g 14.0,4.0
# From MPC 89013
280P/Larsen,e,11.7743,131.3970,104.8008,4.528785,0.1022661,0.41810242,240.1397,05/19.0/2020,2000,g 12.5,4.0
# From MPC 83145
281P/MOSS,e,4.7198,87.1709,26.9136,4.868863,0.0917408,0.17151878,269.0998,05/19.0/2020,2000,g 11.0,4.0
# From MPC xxxxx
282P/,e,5.8098,9.3001,217.5061,4.245162,0.1126841,0.18934255,301.0848,05/19.0/2020,2000,g 13.5,2.0
# From MPEC 2013-M31
283P/Spacewatch,e,14.4538,161.1398,22.2778,4.139118,0.1170422,0.48507196,304.1654,05/19.0/2020,2000,g  9.0,4.0
# From MPEC 2020-HN5
284P/McNaught,e,11.8584,144.2800,202.6577,3.675021,0.1398989,0.37585421,292.5146,05/19.0/2020,2000,g 13.0,4.0
# From MPC 85339
285P/LINEAR,e,25.0264,185.4852,178.4040,4.509115,0.1029360,0.61798347,260.2758,05/19.0/2020,2000,g 15.0,4.0
# From MPC 90771
286P/Christensen,e,17.0450,283.9659,24.7485,4.111462,0.1182251,0.42520261,274.4647,05/19.0/2020,2000,g 14.0,4.0
# From MPC 96868
287P/Christensen,e,16.3185,139.0395,188.8219,4.168111,0.1158231,0.27049032,227.8309,05/19.0/2020,2000,g 13.5,4.0
# From MPC xxxxx
288P/,e,3.2403,83.1874,280.7625,3.047260,0.1852848,0.20136179,238.8554,05/19.0/2020,2000,g 16.0,2.0
# From MPC118844
289P/Blanpain,e,5.8939,68.8898,9.8885,3.048252,0.1851944,0.68542093,27.7803,05/19.0/2020,2000,g  2.5,4.0
# From MPC 95214
290P/Jager,e,19.9695,302.7851,181.6169,6.148165,0.0646526,0.64490139,146.1442,05/19.0/2020,2000,g 10.5,4.0
# From MPC 89314
291P/NEAT,e,6.3325,238.2305,174.0613,4.508241,0.1029659,0.43672369,248.5173,05/19.0/2020,2000,g 13.0,4.0
# From MPC115887
292P/Li,e,24.2521,91.0023,319.4719,6.110722,0.0652477,0.58753608,150.1539,05/19.0/2020,2000,g 12.5,4.0
# From MPC 92278
293P/Spacewatch,e,9.0571,78.4117,41.0873,3.643242,0.1417334,0.41818939,329.6191,05/19.0/2020,2000,g 14.5,4.0
# From MPC 89013
294P/LINEAR,e,18.2161,312.5940,235.5485,3.206093,0.1716879,0.59435021,29.4019,05/19.0/2020,2000,g 15.5,4.0
# From MPC 93589
295P/LINEAR,e,21.0729,7.4153,72.9662,5.306580,0.0806273,0.61598219,177.7259,05/19.0/2020,2000,g 12.0,4.0
# From MPEC 2020-HN5
296P/Garradd,e,25.2351,263.6405,350.1223,3.496660,0.1507384,0.47851324,341.6222,05/19.0/2020,2000,g 14.0,4.0
# From MPC102956
297P/Beshore,e,10.3286,97.6612,132.4659,3.443084,0.1542704,0.31934360,321.6248,05/19.0/2020,2000,g 15.0,4.0
# From MPC114609
298P/Christensen,e,7.8701,52.8285,100.6948,3.593529,0.1446846,0.38691454,344.0278,05/19.0/2020,2000,g 15.0,4.0
# From MPC101100
299P/Catalina-PANSTARRS,e,10.4779,271.6230,323.9052,4.383471,0.1073932,0.28207094,205.1452,05/19.0/2020,2000,g 11.5,4.0
# From MPC114609
300P/Catalina,e,5.6765,95.6698,222.8640,2.700033,0.2221522,0.69168060,125.2562,05/19.0/2020,2000,g 16.0,4.0
# From MPC 89014
301P/LINEAR-NEAT,e,10.3456,351.1795,193.7308,5.737463,0.0717173,0.58580598,149.7744,05/19.0/2020,2000,g 13.0,4.0
# From MPEC 2020-HN5
302P/Lemmon-PANSTARRS,e,6.0340,121.7542,208.1667,4.277684,0.1114015,0.22974341,164.7184,05/19.0/2020,2000,g 12.5,4.0
# From MPC 92278
303P/NEAT,e,7.0171,347.9706,356.8494,5.049753,0.0868558,0.51001858,177.4275,05/19.0/2020,2000,g 13.5,4.0
# From MPC 92987
304P/Ory,e,2.6067,58.9372,335.2227,3.149952,0.1762983,0.60040640,344.9310,05/19.0/2020,2000,g 16.5,4.0
# From MPC101100
305P/Skiff,e,11.6401,240.1368,147.2628,4.645358,0.0984408,0.69268602,198.1048,05/19.0/2020,2000,g 18.0,4.0
# From MPC 92278
306P/LINEAR,e,8.3104,341.3830,0.8044,3.121544,0.1787104,0.59318901,20.9336,05/19.0/2020,2000,g 19.0,4.0
# From MPC 92278
307P/LINEAR,e,4.4312,158.1255,222.1684,5.795422,0.0706442,0.67395268,139.6933,05/19.0/2020,2000,g 15.0,4.0
# From MPC109148
308P/Lagerkvist-Carsenty,e,4.8494,63.1124,333.6358,6.608570,0.0580153,0.36260626,106.8080,05/19.0/2020,2000,g 13.0,2.0
# From MPC 94284
309P/LINEAR,e,17.0239,10.1445,49.9976,4.370658,0.1078658,0.61755542,207.7326,05/19.0/2020,2000,g 15.0,4.0
# From MPC 98566
310P/Hill,e,13.1283,8.9278,31.8842,4.177379,0.1154379,0.42167985,215.1800,05/19.0/2020,2000,g 13.5,4.0
# From MPC109593
311P/PANSTARRS,e,4.9700,279.2264,144.5922,2.188361,0.3044567,0.11528027,316.9321,05/19.0/2020,2000,g 17.0,4.0
# From MPC 92279
312P/NEAT,e,19.7662,144.6701,207.5201,3.468003,0.1526106,0.42812580,340.3191,05/19.0/2020,2000,g 16.0,4.0
# From MPEC 2019-TG9
313P/Gibbs,e,10.9834,105.9718,254.6094,3.161039,0.1753716,0.23477877,5.9316,05/19.0/2020,2000,g 15.0,4.0
# From MPC105243
314P/Montani,e,3.9790,267.6205,214.2355,7.276584,0.0502126,0.41633123,66.1663,05/19.0/2020,2000,g  9.5,4.0
# From MPC115888
315P/LONEOS,e,17.8372,69.1796,65.6281,4.942024,0.0897112,0.52262306,113.2863,05/19.0/2020,2000,g 11.0,4.0
# From MPC 92279
316P/LONEOS-Christensen,e,9.8823,246.7607,193.8629,4.347138,0.1087424,0.16066764,181.0863,05/19.0/2020,2000,g 13.5,4.0
# From MPEC 2020-C98
